{
  "type": "FeatureCollection",
  "features": [
    {
      "type": "Feature",
      "properties": {
        "norad_id": 37836,
        "name": "EUTELSAT 16A",
        "group": "eutelsat",
        "lat": 0.0704275211267241,
        "lon": 103.35767810344936,
        "alt_km": 35810.58776615291,
        "timestamp": "2025-12-26T23:26:41.824414+00:00",
        "meta_object_name": "EUTELSAT 16A",
        "meta_object_id": "2011-057A",
        "meta_epoch": "2025-12-26T16:32:03.031008",
        "meta_mean_motion": 1.00271786,
        "meta_eccentricity": 0.0005828,
        "meta_inclination": 0.0555,
        "meta_ra_of_asc_node": 353.2218,
        "meta_arg_of_pericenter": 284.3161,
        "meta_mean_anomaly": 81.8885,
        "meta_ephemeris_type": 0,
        "meta_classification_type": "U",
        "meta_norad_cat_id": 37836,
        "meta_element_set_no": 999,
        "meta_rev_at_epoch": 559,
        "meta_bstar": 0,
        "meta_mean_motion_dot": 1.26e-06,
        "meta_mean_motion_ddot": 0,
        "tle_line1": "1 37836U 11057A   25360.68892397  .00000126  00000+0  00000+0 0  9996",
        "tle_line2": "2 37836   0.0555 353.2218 0005828 284.3161  81.8885  1.00271786  5595"
      },
      "geometry": {
        "type": "Point",
        "coordinates": [
          103.35767810344936,
          0.0704275211267241
        ]
      }
    },
    {
      "type": "Feature",
      "properties": {
        "norad_id": 38992,
        "name": "EUTELSAT 21B",
        "group": "eutelsat",
        "lat": 0.076794130581701,
        "lon": 108.95330545175094,
        "alt_km": 35799.60955208843,
        "timestamp": "2025-12-26T23:26:41.824425+00:00",
        "meta_object_name": "EUTELSAT 21B",
        "meta_object_id": "2012-062B",
        "meta_epoch": "2025-12-26T16:33:25.398720",
        "meta_mean_motion": 1.00271833,
        "meta_eccentricity": 0.0003236,
        "meta_inclination": 0.0651,
        "meta_ra_of_asc_node": 353.4327,
        "meta_arg_of_pericenter": 288.1636,
        "meta_mean_anomaly": 83.7678,
        "meta_ephemeris_type": 0,
        "meta_classification_type": "U",
        "meta_norad_cat_id": 38992,
        "meta_element_set_no": 999,
        "meta_rev_at_epoch": 4809,
        "meta_bstar": 0,
        "meta_mean_motion_dot": 1.52e-06,
        "meta_mean_motion_ddot": 0,
        "tle_line1": "1 38992U 12062B   25360.68987730  .00000152  00000+0  00000+0 0  9992",
        "tle_line2": "2 38992   0.0651 353.4327 0003236 288.1636  83.7678  1.00271833 48095"
      },
      "geometry": {
        "type": "Point",
        "coordinates": [
          108.95330545175094,
          0.076794130581701
        ]
      }
    },
    {
      "type": "Feature",
      "properties": {
        "norad_id": 39020,
        "name": "EUTELSAT 70B",
        "group": "eutelsat",
        "lat": 0.0222088641242238,
        "lon": 157.83047568000208,
        "alt_km": 35788.63604435219,
        "timestamp": "2025-12-26T23:26:41.824435+00:00",
        "meta_object_name": "EUTELSAT 70B",
        "meta_object_id": "2012-069A",
        "meta_epoch": "2025-12-26T11:39:08.579808",
        "meta_mean_motion": 1.00272018,
        "meta_eccentricity": 0.0004141,
        "meta_inclination": 0.0613,
        "meta_ra_of_asc_node": 350.7293,
        "meta_arg_of_pericenter": 265.6164,
        "meta_mean_anomaly": 84.1659,
        "meta_ephemeris_type": 0,
        "meta_classification_type": "U",
        "meta_norad_cat_id": 39020,
        "meta_element_set_no": 999,
        "meta_rev_at_epoch": 4777,
        "meta_bstar": 0,
        "meta_mean_motion_dot": -2.1e-07,
        "meta_mean_motion_ddot": 0,
        "tle_line1": "1 39020U 12069A   25360.48551597 -.00000021  00000+0  00000+0 0  9994",
        "tle_line2": "2 39020   0.0613 350.7293 0004141 265.6164  84.1659  1.00272018 47774"
      },
      "geometry": {
        "type": "Point",
        "coordinates": [
          157.83047568000208,
          0.0222088641242238
        ]
      }
    },
    {
      "type": "Feature",
      "properties": {
        "norad_id": 39122,
        "name": "EUTELSAT 117 WEST A",
        "group": "eutelsat",
        "lat": -0.007632007321046975,
        "lon": -29.393593405119997,
        "alt_km": 35778.81537717407,
        "timestamp": "2025-12-26T23:26:41.824446+00:00",
        "meta_object_name": "EUTELSAT 117 WEST A",
        "meta_object_id": "2013-012A",
        "meta_epoch": "2025-12-26T15:54:06.664032",
        "meta_mean_motion": 1.00270799,
        "meta_eccentricity": 0.0002852,
        "meta_inclination": 0.0154,
        "meta_ra_of_asc_node": 330.9469,
        "meta_arg_of_pericenter": 308.2848,
        "meta_mean_anomaly": 297.9012,
        "meta_ephemeris_type": 0,
        "meta_classification_type": "U",
        "meta_norad_cat_id": 39122,
        "meta_element_set_no": 999,
        "meta_rev_at_epoch": 4670,
        "meta_bstar": 0,
        "meta_mean_motion_dot": 9e-08,
        "meta_mean_motion_ddot": 0,
        "tle_line1": "1 39122U 13012A   25360.66257713  .00000009  00000+0  00000+0 0  9994",
        "tle_line2": "2 39122   0.0154 330.9469 0002852 308.2848 297.9012  1.00270799 46705"
      },
      "geometry": {
        "type": "Point",
        "coordinates": [
          -29.393593405119997,
          -0.007632007321046975
        ]
      }
    },
    {
      "type": "Feature",
      "properties": {
        "norad_id": 39163,
        "name": "EUTELSAT 7B",
        "group": "eutelsat",
        "lat": 0.08518274181021014,
        "lon": 94.4149025751264,
        "alt_km": 35799.42092588742,
        "timestamp": "2025-12-26T23:26:41.824456+00:00",
        "meta_object_name": "EUTELSAT 7B",
        "meta_object_id": "2013-022A",
        "meta_epoch": "2025-12-26T08:51:38.739168",
        "meta_mean_motion": 1.00271815,
        "meta_eccentricity": 0.0004718,
        "meta_inclination": 0.0666,
        "meta_ra_of_asc_node": 12.0633,
        "meta_arg_of_pericenter": 310.169,
        "meta_mean_anomaly": 272.7878,
        "meta_ephemeris_type": 0,
        "meta_classification_type": "U",
        "meta_norad_cat_id": 39163,
        "meta_element_set_no": 999,
        "meta_rev_at_epoch": 4621,
        "meta_bstar": 0,
        "meta_mean_motion_dot": 7e-07,
        "meta_mean_motion_ddot": 0,
        "tle_line1": "1 39163U 13022A   25360.36919837  .00000070  00000+0  00000+0 0  9997",
        "tle_line2": "2 39163   0.0666  12.0633 0004718 310.1690 272.7878  1.00271815 46216"
      },
      "geometry": {
        "type": "Point",
        "coordinates": [
          94.4149025751264,
          0.08518274181021014
        ]
      }
    },
    {
      "type": "Feature",
      "properties": {
        "norad_id": 39612,
        "name": "EXPRESS-AT1",
        "group": "eutelsat",
        "lat": 0.0015954475119007985,
        "lon": 143.4007473448955,
        "alt_km": 35779.150302978625,
        "timestamp": "2025-12-26T23:26:41.824467+00:00",
        "meta_object_name": "EXPRESS-AT1",
        "meta_object_id": "2014-010A",
        "meta_epoch": "2025-12-26T04:01:38.790048",
        "meta_mean_motion": 1.00275867,
        "meta_eccentricity": 0.0001356,
        "meta_inclination": 0.0174,
        "meta_ra_of_asc_node": 279.8877,
        "meta_arg_of_pericenter": 223.1198,
        "meta_mean_anomaly": 68.3278,
        "meta_ephemeris_type": 0,
        "meta_classification_type": "U",
        "meta_norad_cat_id": 39612,
        "meta_element_set_no": 999,
        "meta_rev_at_epoch": 4308,
        "meta_bstar": 0,
        "meta_mean_motion_dot": 1e-06,
        "meta_mean_motion_ddot": 0,
        "tle_line1": "1 39612U 14010A   25360.16781007  .00000100  00000+0  00000+0 0  9992",
        "tle_line2": "2 39612   0.0174 279.8877 0001356 223.1198  68.3278  1.00275867 43089"
      },
      "geometry": {
        "type": "Point",
        "coordinates": [
          143.4007473448955,
          0.0015954475119007985
        ]
      }
    },
    {
      "type": "Feature",
      "properties": {
        "norad_id": 39613,
        "name": "EXPRESS-AT2",
        "group": "eutelsat",
        "lat": -0.02663515585580388,
        "lon": -132.77286562807137,
        "alt_km": 35781.65068517367,
        "timestamp": "2025-12-26T23:26:41.824478+00:00",
        "meta_object_name": "EXPRESS-AT2",
        "meta_object_id": "2014-010B",
        "meta_epoch": "2025-12-26T17:10:15.663648",
        "meta_mean_motion": 1.00271075,
        "meta_eccentricity": 0.0001673,
        "meta_inclination": 0.0166,
        "meta_ra_of_asc_node": 319.7162,
        "meta_arg_of_pericenter": 316.3181,
        "meta_mean_anomaly": 216.8487,
        "meta_ephemeris_type": 0,
        "meta_classification_type": "U",
        "meta_norad_cat_id": 39613,
        "meta_element_set_no": 999,
        "meta_rev_at_epoch": 4277,
        "meta_bstar": 0,
        "meta_mean_motion_dot": -2.59e-06,
        "meta_mean_motion_ddot": 0,
        "tle_line1": "1 39613U 14010B   25360.71545907 -.00000259  00000+0  00000+0 0  9997",
        "tle_line2": "2 39613   0.0166 319.7162 0001673 316.3181 216.8487  1.00271075 42775"
      },
      "geometry": {
        "type": "Point",
        "coordinates": [
          -132.77286562807137,
          -0.02663515585580388
        ]
      }
    }
  ]
}